[
    {
        "CCSDS_OMM_VERS": "3.0",
        "COMMENT": "GENERATED VIA SPACE-TRACK.ORG API",
        "CREATION_DATE": "2025-03-02T14:26:17",
        "ORIGINATOR": "18 SPCS",
        "OBJECT_NAME": "NAVSTAR 68 (USA 242)",
        "OBJECT_ID": "2013-023A",
        "CENTER_NAME": "EARTH",
        "REF_FRAME": "TEME",
        "TIME_SYSTEM": "UTC",
        "MEAN_ELEMENT_THEORY": "SGP4",
        "EPOCH": "2025-03-02T00:42:17.629344",
        "MEAN_MOTION": "2.00561753",
        "ECCENTRICITY": "0.01325560",
        "INCLINATION": "54.8889",
        "RA_OF_ASC_NODE": "288.1620",
        "ARG_OF_PERICENTER": "46.6343",
        "MEAN_ANOMALY": "314.5187",
        "EPHEMERIS_TYPE": "0",
        "CLASSIFICATION_TYPE": "U",
        "NORAD_CAT_ID": "39166",
        "ELEMENT_SET_NO": "999",
        "REV_AT_EPOCH": "8640",
        "BSTAR": "0.00000000000000",
        "MEAN_MOTION_DOT": "-0.00000001",
        "MEAN_MOTION_DDOT": "0.0000000000000",
        "SEMIMAJOR_AXIS": "26560.511",
        "PERIOD": "717.983",
        "APOAPSIS": "20534.452",
        "PERIAPSIS": "19830.301",
        "OBJECT_TYPE": "PAYLOAD",
        "RCS_SIZE": "LARGE",
        "COUNTRY_CODE": "US",
        "LAUNCH_DATE": "2013-05-15",
        "SITE": "AFETR",
        "DECAY_DATE": null,
        "FILE": "4656865",
        "GP_ID": "282063580",
        "TLE_LINE0": "0 NAVSTAR 68 (USA 242)",
        "TLE_LINE1": "1 39166U 13023A   25061.02937071 -.00000001  00000-0  00000+0 0  9998",
        "TLE_LINE2": "2 39166  54.8889 288.1620 0132556  46.6343 314.5187  2.00561753 86400"
    }
]